{"type": "FeatureCollection", "features": [{"type": "Feature", "properties": {"norad_id": 50032, "name": "COSMOS 1408 DEB", "group": "cosmos-1408-debris", "lat": -49.64990982267185, "lon": 45.65154694331424, "alt_km": 440.7652385064366, "timestamp": "2025-12-16T15:45:51.316285+00:00", "meta": {"OBJECT_NAME": "COSMOS 1408 DEB", "OBJECT_ID": "1982-092RU", "EPOCH": "2025-12-15T04:14:48.950880", "MEAN_MOTION": 15.45720656, "ECCENTRICITY": 0.00154709, "INCLINATION": 82.5645, "RA_OF_ASC_NODE": 56.0111, "ARG_OF_PERICENTER": 199.3332, "MEAN_ANOMALY": 160.7333, "EPHEMERIS_TYPE": 0, "CLASSIFICATION_TYPE": "U", "NORAD_CAT_ID": 50032, "ELEMENT_SET_NO": 999, "REV_AT_EPOCH": 22641, "BSTAR": 8.3312552e-05, "MEAN_MOTION_DOT": 4.083e-05, "MEAN_MOTION_DDOT": 0}, "tle": {"line1": "1 50032U 82092RU  25349.17695545  .00004083  00000+0  83313-4 0  9992", "line2": "2 50032  82.5645  56.0111 0015470 199.3332 160.7333 15.45720656226412"}}, "geometry": {"type": "Point", "coordinates": [45.65154694331424, -49.64990982267185]}}, {"type": "Feature", "properties": {"norad_id": 50058, "name": "COSMOS 1408 DEB", "group": "cosmos-1408-debris", "lat": 51.367968023492615, "lon": 74.58378216840757, "alt_km": 361.2774294987994, "timestamp": "2025-12-16T15:45:51.316306+00:00", "meta": {"OBJECT_NAME": "COSMOS 1408 DEB", "OBJECT_ID": "1982-092SW", "EPOCH": "2025-12-15T22:39:20.359296", "MEAN_MOTION": 15.64302604, "ECCENTRICITY": 0.00162647, "INCLINATION": 82.6133, "RA_OF_ASC_NODE": 65.9879, "ARG_OF_PERICENTER": 88.0199, "MEAN_ANOMALY": 272.2922, "EPHEMERIS_TYPE": 0, "CLASSIFICATION_TYPE": "U", "NORAD_CAT_ID": 50058, "ELEMENT_SET_NO": 999, "REV_AT_EPOCH": 22854, "BSTAR": 0.00026335604, "MEAN_MOTION_DOT": 0.00025363, "MEAN_MOTION_DDOT": 0}, "tle": {"line1": "1 50058U 82092SW  25349.94398564  .00025363  00000+0  26336-3 0  9991", "line2": "2 50058  82.6133  65.9879 0016264  88.0199 272.2922 15.64302604228549"}}, "geometry": {"type": "Point", "coordinates": [74.58378216840757, 51.367968023492615]}}, {"type": "Feature", "properties": {"norad_id": 50404, "name": "COSMOS 1408 DEB", "group": "cosmos-1408-debris", "lat": 3.1914554623052758, "lon": 30.583870394209285, "alt_km": 409.1441473200621, "timestamp": "2025-12-16T15:45:51.316320+00:00", "meta": {"OBJECT_NAME": "COSMOS 1408 DEB", "OBJECT_ID": "1982-092ADS", "EPOCH": "2025-12-15T21:32:23.313984", "MEAN_MOTION": 15.1429436, "ECCENTRICITY": 0.01706647, "INCLINATION": 82.2037, "RA_OF_ASC_NODE": 211.7997, "ARG_OF_PERICENTER": 188.0391, "MEAN_ANOMALY": 171.8103, "EPHEMERIS_TYPE": 0, "CLASSIFICATION_TYPE": "U", "NORAD_CAT_ID": 50404, "ELEMENT_SET_NO": 999, "REV_AT_EPOCH": 21241, "BSTAR": 0.0024072217, "MEAN_MOTION_DOT": 0.00064013, "MEAN_MOTION_DDOT": 0}, "tle": {"line1": "1 50404U 82092ADS 25349.89749206  .00064013  00000+0  24072-2 0  9992", "line2": "2 50404  82.2037 211.7997 0170664 188.0391 171.8103 15.14294360212413"}}, "geometry": {"type": "Point", "coordinates": [30.583870394209285, 3.1914554623052758]}}, {"type": "Feature", "properties": {"norad_id": 50621, "name": "COSMOS 1408 DEB", "group": "cosmos-1408-debris", "lat": -36.31421111616053, "lon": 64.59870051674417, "alt_km": 422.7087175369261, "timestamp": "2025-12-16T15:45:51.316331+00:00", "meta": {"OBJECT_NAME": "COSMOS 1408 DEB", "OBJECT_ID": "1982-092ALR", "EPOCH": "2025-12-15T18:19:33.175488", "MEAN_MOTION": 15.56826733, "ECCENTRICITY": 0.00289654, "INCLINATION": 82.5705, "RA_OF_ASC_NODE": 71.0324, "ARG_OF_PERICENTER": 141.324, "MEAN_ANOMALY": 219.0098, "EPHEMERIS_TYPE": 0, "CLASSIFICATION_TYPE": "U", "NORAD_CAT_ID": 50621, "ELEMENT_SET_NO": 999, "REV_AT_EPOCH": 22297, "BSTAR": 0.0002778382, "MEAN_MOTION_DOT": 0.00020366, "MEAN_MOTION_DDOT": 0}, "tle": {"line1": "1 50621U 82092ALR 25349.76357842  .00020366  00000+0  27784-3 0  9997", "line2": "2 50621  82.5705  71.0324 0028965 141.3240 219.0098 15.56826733222972"}}, "geometry": {"type": "Point", "coordinates": [64.59870051674417, -36.31421111616053]}}]}